UNKNOWN                 
1 81775U          26016.45032215  .00004651  00000+0  14300-2 0  9990
2 81775  82.9183 195.5085 0016518 143.1348 217.0984 14.41329097630278
UNKNOWN                 
1 81779U          26016.37411080 -.00002513  00000+0 -13259+0 0  9992
2 81779  54.5373 157.5615 1566049  85.0390 292.6602  9.34331057483554
UNKNOWN                 
1 81792U          26016.28923610  .00001860  00000+0  67154-3 0  9993
2 81792  65.8270  18.2172 0896262 267.1749  82.6510 13.11101589 84562
UNKNOWN                 
1 81812U          26016.49536742  .00001284  00000+0  93584-2 0  9990
2 81812 103.8157 297.6371 0239098 185.0436 174.8200 12.37660758544864
UNKNOWN                 
1 81816U          26015.92730461  .00000548  00000+0  45371-3 0  9999
2 81816  66.2361 210.8806 0175737 226.9267 131.6985 13.89555647614095
UNKNOWN                 
1 81819U          26013.49188400  .00000904  00000+0  64272-2 0  9998
2 81819 102.1730 116.1023 0030839  59.4402 300.9703 12.47728041551979
UNKNOWN                 
1 81824U          26014.64605161  .00002143  00000+0  76281-3 0  9991
2 81824  65.8427 247.4363 0043556 315.2596  44.4987 14.35814103629317
UNKNOWN                 
1 81833U          26014.90993692  .00000030  00000+0  83153-4 0  9999
2 81833  90.2406   3.6285 0025816 299.2281  60.6256 12.93740160456806
UNKNOWN                 
1 81844U          26013.39571787  .00002273  00000+0  80399-3 0  9999
2 81844  82.9088 256.5867 0063150  55.2687 305.4426 14.33155825627421
UNKNOWN                 
1 81845U          26015.49066163  .00002221  00000+0  24758-3 0  9990
2 81845  97.6741 206.2886 0087140 193.2431 196.4550 14.85322761654539
UNKNOWN                 
1 81864U          26016.16998432  .00002078  00000+0  81233-3 0  9990
2 81864  65.6730 346.3915 0765717 358.2266   1.6083 13.32513215555427
UNKNOWN                 
1 81865U          26016.39633311  .00001027  00000+0  83659-3 0  9995
2 81865  82.8058   1.9246 0060706 266.5598 251.6864 13.88130165613359
