CCSDS_OMM_VERS = 2.0
CREATION_DATE  = 
ORIGINATOR     = 

OBJECT_NAME    = UNKNOWN
OBJECT_ID      = 
CENTER_NAME    = EARTH
REF_FRAME      = TEME
TIME_SYSTEM    = UTC
MEAN_ELEMENT_THEORY = SGP/SGP4

EPOCH          = 2026-01-16T10:48:27.833760
MEAN_MOTION    = 14.41329097
ECCENTRICITY   = .0016518
INCLINATION    = 82.9183
RA_OF_ASC_NODE = 195.5085
ARG_OF_PERICENTER = 143.1348
MEAN_ANOMALY   = 217.0984

EPHEMERIS_TYPE = 0
CLASSIFICATION_TYPE = U
NORAD_CAT_ID   = 81775
ELEMENT_SET_NO = 999
REV_AT_EPOCH   = 63027
BSTAR          = .143E-2
MEAN_MOTION_DOT = .4651E-4
MEAN_MOTION_DDOT = 0

CCSDS_OMM_VERS = 2.0
CREATION_DATE  = 
ORIGINATOR     = 

OBJECT_NAME    = UNKNOWN
OBJECT_ID      = 
CENTER_NAME    = EARTH
REF_FRAME      = TEME
TIME_SYSTEM    = UTC
MEAN_ELEMENT_THEORY = SGP/SGP4

EPOCH          = 2026-01-16T08:58:43.173120
MEAN_MOTION    = 9.34331057
ECCENTRICITY   = .1566049
INCLINATION    = 54.5373
RA_OF_ASC_NODE = 157.5615
ARG_OF_PERICENTER = 85.0390
MEAN_ANOMALY   = 292.6602

EPHEMERIS_TYPE = 0
CLASSIFICATION_TYPE = U
NORAD_CAT_ID   = 81779
ELEMENT_SET_NO = 999
REV_AT_EPOCH   = 48355
BSTAR          = -.13259E+0
MEAN_MOTION_DOT = -.2513E-4
MEAN_MOTION_DDOT = 0

CCSDS_OMM_VERS = 2.0
CREATION_DATE  = 
ORIGINATOR     = 

OBJECT_NAME    = UNKNOWN
OBJECT_ID      = 
CENTER_NAME    = EARTH
REF_FRAME      = TEME
TIME_SYSTEM    = UTC
MEAN_ELEMENT_THEORY = SGP/SGP4

EPOCH          = 2026-01-16T06:56:29.999040
MEAN_MOTION    = 13.11101589
ECCENTRICITY   = .0896262
INCLINATION    = 65.8270
RA_OF_ASC_NODE = 18.2172
ARG_OF_PERICENTER = 267.1749
MEAN_ANOMALY   = 82.6510

EPHEMERIS_TYPE = 0
CLASSIFICATION_TYPE = U
NORAD_CAT_ID   = 81792
ELEMENT_SET_NO = 999
REV_AT_EPOCH   = 8456
BSTAR          = .67154E-3
MEAN_MOTION_DOT = .186E-4
MEAN_MOTION_DDOT = 0

CCSDS_OMM_VERS = 2.0
CREATION_DATE  = 
ORIGINATOR     = 

OBJECT_NAME    = UNKNOWN
OBJECT_ID      = 
CENTER_NAME    = EARTH
REF_FRAME      = TEME
TIME_SYSTEM    = UTC
MEAN_ELEMENT_THEORY = SGP/SGP4

EPOCH          = 2026-01-16T11:53:19.745088
MEAN_MOTION    = 12.37660758
ECCENTRICITY   = .0239098
INCLINATION    = 103.8157
RA_OF_ASC_NODE = 297.6371
ARG_OF_PERICENTER = 185.0436
MEAN_ANOMALY   = 174.8200

EPHEMERIS_TYPE = 0
CLASSIFICATION_TYPE = U
NORAD_CAT_ID   = 81812
ELEMENT_SET_NO = 999
REV_AT_EPOCH   = 54486
BSTAR          = .93584E-2
MEAN_MOTION_DOT = .1284E-4
MEAN_MOTION_DDOT = 0

CCSDS_OMM_VERS = 2.0
CREATION_DATE  = 
ORIGINATOR     = 

OBJECT_NAME    = UNKNOWN
OBJECT_ID      = 
CENTER_NAME    = EARTH
REF_FRAME      = TEME
TIME_SYSTEM    = UTC
MEAN_ELEMENT_THEORY = SGP/SGP4

EPOCH          = 2026-01-15T22:15:19.118304
MEAN_MOTION    = 13.89555647
ECCENTRICITY   = .0175737
INCLINATION    = 66.2361
RA_OF_ASC_NODE = 210.8806
ARG_OF_PERICENTER = 226.9267
MEAN_ANOMALY   = 131.6985

EPHEMERIS_TYPE = 0
CLASSIFICATION_TYPE = U
NORAD_CAT_ID   = 81816
ELEMENT_SET_NO = 999
REV_AT_EPOCH   = 61409
BSTAR          = .45371E-3
MEAN_MOTION_DOT = .548E-5
MEAN_MOTION_DDOT = 0

CCSDS_OMM_VERS = 2.0
CREATION_DATE  = 
ORIGINATOR     = 

OBJECT_NAME    = UNKNOWN
OBJECT_ID      = 
CENTER_NAME    = EARTH
REF_FRAME      = TEME
TIME_SYSTEM    = UTC
MEAN_ELEMENT_THEORY = SGP/SGP4

EPOCH          = 2026-01-13T11:48:18.777600
MEAN_MOTION    = 12.47728041
ECCENTRICITY   = .0030839
INCLINATION    = 102.1730
RA_OF_ASC_NODE = 116.1023
ARG_OF_PERICENTER = 59.4402
MEAN_ANOMALY   = 300.9703

EPHEMERIS_TYPE = 0
CLASSIFICATION_TYPE = U
NORAD_CAT_ID   = 81819
ELEMENT_SET_NO = 999
REV_AT_EPOCH   = 55197
BSTAR          = .64272E-2
MEAN_MOTION_DOT = .904E-5
MEAN_MOTION_DDOT = 0

CCSDS_OMM_VERS = 2.0
CREATION_DATE  = 
ORIGINATOR     = 

OBJECT_NAME    = UNKNOWN
OBJECT_ID      = 
CENTER_NAME    = EARTH
REF_FRAME      = TEME
TIME_SYSTEM    = UTC
MEAN_ELEMENT_THEORY = SGP/SGP4

EPOCH          = 2026-01-14T15:30:18.859104
MEAN_MOTION    = 14.35814103
ECCENTRICITY   = .0043556
INCLINATION    = 65.8427
RA_OF_ASC_NODE = 247.4363
ARG_OF_PERICENTER = 315.2596
MEAN_ANOMALY   = 44.4987

EPHEMERIS_TYPE = 0
CLASSIFICATION_TYPE = U
NORAD_CAT_ID   = 81824
ELEMENT_SET_NO = 999
REV_AT_EPOCH   = 62931
BSTAR          = .76281E-3
MEAN_MOTION_DOT = .2143E-4
MEAN_MOTION_DDOT = 0

CCSDS_OMM_VERS = 2.0
CREATION_DATE  = 
ORIGINATOR     = 

OBJECT_NAME    = UNKNOWN
OBJECT_ID      = 
CENTER_NAME    = EARTH
REF_FRAME      = TEME
TIME_SYSTEM    = UTC
MEAN_ELEMENT_THEORY = SGP/SGP4

EPOCH          = 2026-01-14T21:50:18.549888
MEAN_MOTION    = 12.93740160
ECCENTRICITY   = .0025816
INCLINATION    = 90.2406
RA_OF_ASC_NODE = 3.6285
ARG_OF_PERICENTER = 299.2281
MEAN_ANOMALY   = 60.6256

EPHEMERIS_TYPE = 0
CLASSIFICATION_TYPE = U
NORAD_CAT_ID   = 81833
ELEMENT_SET_NO = 999
REV_AT_EPOCH   = 45680
BSTAR          = .83153E-4
MEAN_MOTION_DOT = .3E-6
MEAN_MOTION_DDOT = 0

CCSDS_OMM_VERS = 2.0
CREATION_DATE  = 
ORIGINATOR     = 

OBJECT_NAME    = UNKNOWN
OBJECT_ID      = 
CENTER_NAME    = EARTH
REF_FRAME      = TEME
TIME_SYSTEM    = UTC
MEAN_ELEMENT_THEORY = SGP/SGP4

EPOCH          = 2026-01-13T09:29:50.023968
MEAN_MOTION    = 14.33155825
ECCENTRICITY   = .006315
INCLINATION    = 82.9088
RA_OF_ASC_NODE = 256.5867
ARG_OF_PERICENTER = 55.2687
MEAN_ANOMALY   = 305.4426

EPHEMERIS_TYPE = 0
CLASSIFICATION_TYPE = U
NORAD_CAT_ID   = 81844
ELEMENT_SET_NO = 999
REV_AT_EPOCH   = 62742
BSTAR          = .80399E-3
MEAN_MOTION_DOT = .2273E-4
MEAN_MOTION_DDOT = 0

CCSDS_OMM_VERS = 2.0
CREATION_DATE  = 
ORIGINATOR     = 

OBJECT_NAME    = UNKNOWN
OBJECT_ID      = 
CENTER_NAME    = EARTH
REF_FRAME      = TEME
TIME_SYSTEM    = UTC
MEAN_ELEMENT_THEORY = SGP/SGP4

EPOCH          = 2026-01-15T11:46:33.164832
MEAN_MOTION    = 14.85322761
ECCENTRICITY   = .008714
INCLINATION    = 97.6741
RA_OF_ASC_NODE = 206.2886
ARG_OF_PERICENTER = 193.2431
MEAN_ANOMALY   = 196.4550

EPHEMERIS_TYPE = 0
CLASSIFICATION_TYPE = U
NORAD_CAT_ID   = 81845
ELEMENT_SET_NO = 999
REV_AT_EPOCH   = 65453
BSTAR          = .24758E-3
MEAN_MOTION_DOT = .2221E-4
MEAN_MOTION_DDOT = 0

CCSDS_OMM_VERS = 2.0
CREATION_DATE  = 
ORIGINATOR     = 

OBJECT_NAME    = UNKNOWN
OBJECT_ID      = 
CENTER_NAME    = EARTH
REF_FRAME      = TEME
TIME_SYSTEM    = UTC
MEAN_ELEMENT_THEORY = SGP/SGP4

EPOCH          = 2026-01-16T04:04:46.645248
MEAN_MOTION    = 13.32513215
ECCENTRICITY   = .0765717
INCLINATION    = 65.6730
RA_OF_ASC_NODE = 346.3915
ARG_OF_PERICENTER = 358.2266
MEAN_ANOMALY   = 1.6083

EPHEMERIS_TYPE = 0
CLASSIFICATION_TYPE = U
NORAD_CAT_ID   = 81864
ELEMENT_SET_NO = 999
REV_AT_EPOCH   = 55542
BSTAR          = .81233E-3
MEAN_MOTION_DOT = .2078E-4
MEAN_MOTION_DDOT = 0

CCSDS_OMM_VERS = 2.0
CREATION_DATE  = 
ORIGINATOR     = 

OBJECT_NAME    = UNKNOWN
OBJECT_ID      = 
CENTER_NAME    = EARTH
REF_FRAME      = TEME
TIME_SYSTEM    = UTC
MEAN_ELEMENT_THEORY = SGP/SGP4

EPOCH          = 2026-01-16T09:30:43.180704
MEAN_MOTION    = 13.88130165
ECCENTRICITY   = .0060706
INCLINATION    = 82.8058
RA_OF_ASC_NODE = 1.9246
ARG_OF_PERICENTER = 266.5598
MEAN_ANOMALY   = 251.6864

EPHEMERIS_TYPE = 0
CLASSIFICATION_TYPE = U
NORAD_CAT_ID   = 81865
ELEMENT_SET_NO = 999
REV_AT_EPOCH   = 61335
BSTAR          = .83659E-3
MEAN_MOTION_DOT = .1027E-4
MEAN_MOTION_DDOT = 0

